{
    "links": {
        "self": "http://www.neowsapp.com/rest/v1/neo/3673913?api_key=iIulBulltgU6a56xZRHN4H3l9WmuAYTsLGpBGhQ2"
    },
    "id": "3673913",
    "neo_reference_id": "3673913",
    "name": "(2014 MZ5)",
    "designation": "2014 MZ5",
    "nasa_jpl_url": "http://ssd.jpl.nasa.gov/sbdb.cgi?sstr=3673913",
    "absolute_magnitude_h": 24.0,
    "estimated_diameter": {
        "kilometers": {
            "estimated_diameter_min": 0.0421264611,
            "estimated_diameter_max": 0.0941976306
        },
        "meters": {
            "estimated_diameter_min": 42.1264610556,
            "estimated_diameter_max": 94.1976305719
        },
        "miles": {
            "estimated_diameter_min": 0.0261761612,
            "estimated_diameter_max": 0.0585316759
        },
        "feet": {
            "estimated_diameter_min": 138.2101784897,
            "estimated_diameter_max": 309.0473542854
        }
    },
    "is_potentially_hazardous_asteroid": false,
    "close_approach_data": [
        {
            "close_approach_date": "2010-06-24",
            "close_approach_date_full": "2010-Jun-24 04:51",
            "epoch_date_close_approach": 1277355060000,
            "relative_velocity": {
                "kilometers_per_second": "11.8711655717",
                "kilometers_per_hour": "42736.1960582359",
                "miles_per_hour": "26554.6102674078"
            },
            "miss_distance": {
                "astronomical": "0.119390069",
                "lunar": "46.442736841",
                "kilometers": "17860500.02155303",
                "miles": "11098000.092290614"
            },
            "orbiting_body": "Earth"
        },
        {
            "close_approach_date": "2014-06-22",
            "close_approach_date_full": "2014-Jun-22 15:53",
            "epoch_date_close_approach": 1403452380000,
            "relative_velocity": {
                "kilometers_per_second": "11.5734557046",
                "kilometers_per_hour": "41664.4405366644",
                "miles_per_hour": "25888.6630656846"
            },
            "miss_distance": {
                "astronomical": "0.0661784911",
                "lunar": "25.7434330379",
                "kilometers": "9900161.308373957",
                "miles": "6151674.9800643266"
            },
            "orbiting_body": "Earth"
        },
        {
            "close_approach_date": "2018-06-21",
            "close_approach_date_full": "2018-Jun-21 05:53",
            "epoch_date_close_approach": 1529560380000,
            "relative_velocity": {
                "kilometers_per_second": "11.6147496391",
                "kilometers_per_hour": "41813.0987009231",
                "miles_per_hour": "25981.0334678041"
            },
            "miss_distance": {
                "astronomical": "0.0774521418",
                "lunar": "30.1288831602",
                "kilometers": "11586675.440217966",
                "miles": "7199626.2674452908"
            },
            "orbiting_body": "Earth"
        },
        {
            "close_approach_date": "2022-06-19",
            "close_approach_date_full": "2022-Jun-19 16:29",
            "epoch_date_close_approach": 1655656140000,
            "relative_velocity": {
                "kilometers_per_second": "12.037895726",
                "kilometers_per_hour": "43336.4246136731",
                "miles_per_hour": "26927.5689495348"
            },
            "miss_distance": {
                "astronomical": "0.1422378811",
                "lunar": "55.3305357479",
                "kilometers": "21278484.045873257",
                "miles": "13221836.8813826666"
            },
            "orbiting_body": "Earth"
        },
        {
            "close_approach_date": "2026-06-18",
            "close_approach_date_full": "2026-Jun-18 00:20",
            "epoch_date_close_approach": 1781742000000,
            "relative_velocity": {
                "kilometers_per_second": "12.9014756578",
                "kilometers_per_hour": "46445.3123680177",
                "miles_per_hour": "28859.3108988941"
            },
            "miss_distance": {
                "astronomical": "0.2259308838",
                "lunar": "87.8871137982",
                "kilometers": "33798778.983697506",
                "miles": "21001587.4039213428"
            },
            "orbiting_body": "Earth"
        }
    ],
    "orbital_data": {
        "orbit_id": "4",
        "orbit_determination_date": "2017-04-06 08:40:00",
        "first_observation_date": "2014-06-21",
        "last_observation_date": "2014-06-29",
        "data_arc_in_days": 8,
        "observations_used": 53,
        "orbit_uncertainty": "8",
        "minimum_orbit_intersection": ".0616211",
        "jupiter_tisserand_invariant": "5.190",
        "epoch_osculation": "2456831.5",
        "eccentricity": ".1085193511486733",
        "semi_major_axis": "1.20900933278673",
        "inclination": "22.32313869130016",
        "ascending_node_longitude": "90.50718187532738",
        "orbital_period": "485.5600046396129",
        "perihelion_distance": "1.077808424460024",
        "perihelion_argument": "177.5303494142956",
        "aphelion_distance": "1.340210241113436",
        "perihelion_time": "2456829.478826009869",
        "mean_anomaly": "1.49852259142968",
        "mean_motion": ".7414119708380744",
        "equinox": "J2000",
        "orbit_class": {
            "orbit_class_type": "AMO",
            "orbit_class_description": "Near-Earth asteroid orbits similar to that of 1221 Amor",
            "orbit_class_range": "1.017 AU < q (perihelion) < 1.3 AU"
        }
    },
    "is_sentry_object": false
}